OBJECT_NAME,OBJECT_ID,EPOCH,MEAN_MOTION,ECCENTRICITY,INCLINATION,RA_OF_ASC_NODE,ARG_OF_PERICENTER,MEAN_ANOMALY,EPHEMERIS_TYPE,CLASSIFICATION_TYPE,NORAD_CAT_ID,ELEMENT_SET_NO,REV_AT_EPOCH,BSTAR,MEAN_MOTION_DOT,MEAN_MOTION_DDOT
COSMOS 2058,1990-010A,2026-07-07T18:46:38.578944,15.12133909,.00079769,82.4676,289.0447,281.6968,78.3367,0,U,20465,999,96038,.10174203E-3,.1783E-4,0
SL-14 R/B,1990-010B,2026-07-08T08:16:38.878752,14.83660226,.00181634,82.5029,154.0749,261.6541,98.2615,0,U,20466,999,94637,.3290458E-4,.296E-5,0
SL-14 R/B,1990-018B,2026-07-08T05:00:45.854784,14.82230955,.00174676,82.5222,110.4603,58.3122,301.9793,0,U,20511,999,94043,.35542741E-4,.308E-5,0
HST,1990-037B,2026-07-08T09:29:18.598560,15.31009933,.00019705,28.4736,295.6011,38.7878,321.2860,0,U,20580,999,79182,.13646929E-3,.4439E-4,0
SL-16 R/B,1990-046B,2026-07-08T07:07:33.974400,14.15022808,.00124887,70.9984,44.6133,126.5086,233.7189,0,U,20625,999,86545,-.19628124E-4,-.86E-6,0
COSMOS 2084,1990-055A,2026-07-08T07:21:59.159808,15.06207242,.00072412,62.7905,284.0017,311.5200,48.5279,0,U,20663,999,95448,.89140439E-4,.111E-4,0
SL-6 R/B(2),1990-055D,2026-07-08T07:47:41.467200,15.04069414,.00440344,62.7798,203.4433,8.0653,352.1144,0,U,20666,999,95633,.10554395E-3,.1289E-4,0
SL-8 R/B,1990-078B,2026-07-08T07:23:47.318784,14.93387668,.03446726,82.9023,142.5450,326.9845,31.0262,0,U,20775,999,82727,.45339982E-3,.16006E-3,0
SL-8 R/B,1991-006B,2026-07-08T10:34:43.485312,13.77508301,.00237227,82.9417,80.2223,58.5071,114.1662,0,U,21088,999,78069,.43428536E-4,.59E-6,0
OKEAN-3,1991-039A,2026-07-08T13:00:40.991904,15.05413783,.00119846,82.5138,219.6715,279.6219,80.3654,0,U,21397,999,88321,.89807656E-4,.1318E-4,0
COSMOS 2151,1991-042A,2026-07-08T12:47:42.495072,15.00501310,.00126116,82.4976,327.0796,17.8594,342.3070,0,U,21422,999,88131,.11833745E-3,.1519E-4,0
SL-14 R/B,1991-042B,2026-07-08T11:45:31.333536,14.81915669,.00163807,82.4936,106.9196,199.2387,160.8211,0,U,21423,999,87096,.3009334E-4,.262E-5,0
ERS-1,1991-050A,2026-07-08T12:05:08.811744,14.39529971,.00314782,98.7795,210.7221,201.7591,158.2261,0,U,21574,999,83311,.70681589E-4,.175E-5,0
ARIANE 40 R/B,1991-050F,2026-07-08T09:45:19.180800,14.42969392,.00043814,98.1865,236.9957,76.0599,284.1079,0,U,21610,999,83640,.67480697E-4,.184E-5,0
INTERCOSMOS 25,1991-086A,2026-07-08T13:43:55.468128,12.12232321,.14842529,82.6019,236.8689,216.2213,132.8896,0,U,21819,999,51133,.23742691E-3,.1204E-4,0
SL-8 R/B,1992-008B,2026-07-08T10:51:39.720384,13.75982260,.00352934,82.9265,177.9761,155.0370,8.8933,0,U,21876,999,72602,.11673653E-3,.129E-5,0
SL-8 R/B,1992-020B,2026-07-08T02:15:41.927328,13.75550304,.00282866,82.9292,64.3269,324.1459,188.7340,0,U,21938,999,71768,.5601716E-5,.2E-6,0
USA 81,1992-023A,2026-07-08T08:54:48.667104,14.32403655,.000228,85.0058,61.7791,67.9233,292.2202,0,U,21949,999,11206,.32795697E-4,.109E-5,0
COSMOS 2219,1992-076A,2026-07-07T21:59:56.698944,14.14110102,.00177808,71.0614,126.7381,9.1281,351.0161,0,U,22219,999,73537,.3055535E-5,-.41E-6,0
SL-16 R/B,1992-076B,2026-07-08T13:15:56.977056,14.16874473,.00149865,71.0009,293.7736,270.5881,100.3313,0,U,22220,999,73895,.89661239E-4,.132E-5,0
COSMOS 2221,1992-080A,2026-07-08T08:01:14.108448,14.96590795,.00152623,82.5038,163.5033,141.3910,218.8407,0,U,22236,999,79883,.10858983E-3,.1265E-4,0
SL-16 R/B,1992-093B,2026-07-08T12:20:04.804800,14.15467012,.00026554,71.0224,110.6209,149.4236,210.7043,0,U,22285,999,73025,.23060336E-4,-.3E-7,0
COSMOS 2228,1992-094A,2026-07-08T12:50:27.302208,14.97662010,.00160207,82.5190,121.5952,253.7903,106.1557,0,U,22286,999,79414,.11562491E-3,.1382E-4,0
SL-16 R/B,1993-016B,2026-07-08T08:31:03.213120,14.15311705,.00090712,71.0085,321.7471,150.3082,209.8558,0,U,22566,999,71924,-.54126676E-4,-.153E-5,0
COSMOS 2242,1993-024A,2026-07-08T07:17:24.356832,14.96970444,.00143736,82.5193,151.3395,258.3299,101.6311,0,U,22626,999,79843,.12062792E-3,.1415E-4,0
SL-16 R/B,1993-059B,2026-07-08T12:32:52.859328,14.17251213,.00162997,70.9907,116.3113,18.8120,341.3603,0,U,22803,999,69665,-.3594047E-4,-.121E-5,0
ARIANE 40 R/B,1993-061H,2026-07-08T10:23:39.982560,14.32916709,.00094772,98.4809,255.8479,288.3924,71.6230,0,U,22830,999,71139,.59855355E-4,.12E-5,0
COSMOS 2278,1994-023A,2026-07-08T12:49:36.912000,14.14394354,.00099615,71.0535,282.2621,215.7423,144.3034,0,U,23087,999,66189,-.89093259E-4,-.218E-5,0
SL-16 R/B,1994-023B,2026-07-08T09:14:50.553312,14.15024243,.00015556,70.9977,177.4130,152.0969,208.0238,0,U,23088,999,66316,-.62837678E-4,-.169E-5,0
SL-16 R/B,1994-074B,2026-07-08T07:21:15.661728,14.79520324,.00065885,97.6985,215.1466,175.3877,195.3076,0,U,23343,999,70508,.45269152E-4,.289E-5,0
