COSMOS 2058             
1 20465U 90010A   26188.78239096  .00001783  00000+0  10174-3 0  9990
2 20465  82.4676 289.0447 0007976 281.6968  78.3367 15.12133909960389
SL-14 R/B               
1 20466U 90010B   26189.34489443  .00000296  00000+0  32905-4 0  9992
2 20466  82.5029 154.0749 0018163 261.6541  98.2615 14.83660226946378
SL-14 R/B               
1 20511U 90018B   26189.20886406  .00000308  00000+0  35543-4 0  9991
2 20511  82.5222 110.4603 0017467  58.3122 301.9793 14.82230955940434
HST                     
1 20580U 90037B   26189.39535415  .00004439  00000+0  13647-3 0  9998
2 20580  28.4736 295.6011 0001970  38.7878 321.2860 15.31009933791822
SL-16 R/B               
1 20625U 90046B   26189.29692100 -.00000086  00000+0 -19628-4 0  9994
2 20625  70.9984  44.6133 0012488 126.5086 233.7189 14.15022808865458
COSMOS 2084             
1 20663U 90055A   26189.30693472  .00001110  00000+0  89140-4 0  9994
2 20663  62.7905 284.0017 0007241 311.5200  48.5279 15.06207242954480
SL-6 R/B(2)             
1 20666U 90055D   26189.32478550  .00001289  00000+0  10554-3 0  9996
2 20666  62.7798 203.4433 0044034   8.0653 352.1144 15.04069414956337
SL-8 R/B                
1 20775U 90078B   26189.30818656  .00016006  00000+0  45340-3 0  9999
2 20775  82.9023 142.5450 0344672 326.9845  31.0262 14.93387668827276
SL-8 R/B                
1 21088U 91006B   26189.44078108  .00000059  00000+0  43429-4 0  9992
2 21088  82.9417  80.2223 0023722  58.5071 114.1662 13.77508301780697
OKEAN-3                 
1 21397U 91039A   26189.54214111  .00001318  00000+0  89808-4 0  9998
2 21397  82.5138 219.6715 0011984 279.6219  80.3654 15.05413783883216
COSMOS 2151             
1 21422U 91042A   26189.53313073  .00001519  00000+0  11834-3 0  9993
2 21422  82.4976 327.0796 0012611  17.8594 342.3070 15.00501310881314
SL-14 R/B               
1 21423U 91042B   26189.48994599  .00000262  00000+0  30093-4 0  9999
2 21423  82.4936 106.9196 0016380 199.2387 160.8211 14.81915669870964
ERS-1                   
1 21574U 91050A   26189.50357421  .00000175  00000+0  70682-4 0  9996
2 21574  98.7795 210.7221 0031478 201.7591 158.2261 14.39529971833110
ARIANE 40 R/B           
1 21610U 91050F   26189.40647200  .00000184  00000+0  67481-4 0  9996
2 21610  98.1865 236.9957 0004381  76.0599 284.1079 14.42969392836403
INTERCOSMOS 25          
1 21819U 91086A   26189.57216977  .00001204  00000+0  23743-3 0  9993
2 21819  82.6019 236.8689 1484252 216.2213 132.8896 12.12232321511333
SL-8 R/B                
1 21876U 92008B   26189.45254306  .00000129  00000+0  11674-3 0  9991
2 21876  82.9265 177.9761 0035293 155.0370   8.8933 13.75982260726020
SL-8 R/B                
1 21938U 92020B   26189.09423527  .00000020  00000+0  56017-5 0  9999
2 21938  82.9292  64.3269 0028286 324.1459 188.7340 13.75550304717684
USA 81                  
1 21949U 92023A   26189.37139661  .00000109  00000+0  32796-4 0  9993
2 21949  85.0058  61.7791 0002280  67.9233 292.2202 14.32403655112068
COSMOS 2219             
1 22219U 92076A   26188.91662846 -.00000041  00000+0  30555-5 0  9995
2 22219  71.0614 126.7381 0017780   9.1281 351.0161 14.14110102735376
SL-16 R/B               
1 22220U 92076B   26189.55274279  .00000132  00000+0  89661-4 0  9998
2 22220  71.0009 293.7736 0014986 270.5881 100.3313 14.16874473738951
COSMOS 2221             
1 22236U 92080A   26189.33419107  .00001265  00000+0  10859-3 0  9997
2 22236  82.5038 163.5033 0015262 141.3910 218.8407 14.96590795798839
SL-16 R/B               
1 22285U 92093B   26189.51394450 -.00000003  00000+0  23060-4 0  9997
2 22285  71.0224 110.6209 0002655 149.4236 210.7043 14.15467012730258
COSMOS 2228             
1 22286U 92094A   26189.53503822  .00001382  00000+0  11562-3 0  9999
2 22286  82.5190 121.5952 0016020 253.7903 106.1557 14.97662010794146
SL-16 R/B               
1 22566U 93016B   26189.35489830 -.00000153  00000+0 -54127-4 0  9999
2 22566  71.0085 321.7471 0009071 150.3082 209.8558 14.15311705719243
COSMOS 2242             
1 22626U 93024A   26189.30375413  .00001415  00000+0  12063-3 0  9993
2 22626  82.5193 151.3395 0014373 258.3299 101.6311 14.96970444798433
SL-16 R/B               
1 22803U 93059B   26189.52283402 -.00000121  00000+0 -35940-4 0  9993
2 22803  70.9907 116.3113 0016299  18.8120 341.3603 14.17251213696651
ARIANE 40 R/B           
1 22830U 93061H   26189.43310165  .00000120  00000+0  59855-4 0  9991
2 22830  98.4809 255.8479 0009477 288.3924  71.6230 14.32916709711390
COSMOS 2278             
1 23087U 94023A   26189.53445500 -.00000218  00000+0 -89093-4 0  9995
2 23087  71.0535 282.2621 0009961 215.7423 144.3034 14.14394354661892
SL-16 R/B               
1 23088U 94023B   26189.38530733 -.00000169  00000+0 -62838-4 0  9995
2 23088  70.9977 177.4130 0001555 152.0969 208.0238 14.15024243663164
SL-16 R/B               
1 23343U 94074B   26189.30643127  .00000289  00000+0  45269-4 0  9999
2 23343  97.6985 215.1466 0006588 175.3877 195.3076 14.79520324705089
